ONEWEB-0685             
1 54679U 22166AP  24344.46495674  .00000059  00000+0  11134-3 0  9996
2 54679  87.9295 354.5001 0002006  85.9546 274.1817 13.21828678 98133
ONEWEB-0712             
1 54680U 22166AQ  24344.73819843 -.00000133  00000+0 -38082-3 0  9992
2 54680  87.9077 339.2314 0001870  68.4168 291.7162 13.16594151 99100
ONEWEB-0714             
1 54681U 22166AR  24344.77405067  .00000080  00000+0  16202-3 0  9995
2 54681  87.9295 354.4276 0001991  87.2376 272.8986 13.21822975 98290
ONEWEB-0532             
1 55140U 23004A   24344.62336939  .00000045  00000+0  81544-4 0  9996
2 55140  87.9094 116.3381 0001918 112.9188 247.2146 13.17651078 94554
ONEWEB-0533             
1 55141U 23004B   24344.60334049 -.00000190  00000+0 -56419-3 0  9990
2 55141  87.8885 101.0818 0001654  99.2924 260.8392 13.12443256 95311
ONEWEB-0541             
1 55142U 23004C   24344.88626357 -.00000109  00000+0 -34208-3 0  9999
2 55142  87.8893 131.5011 0001505  98.7355 261.3943 13.11414196 93294
ONEWEB-0543             
1 55143U 23004D   24344.73467145  .00000059  00000+0  11694-3 0  9998
2 55143  87.9107  85.8593 0001539  91.0052 269.1256 13.18685605 96622
ONEWEB-0544             
1 55144U 23004E   24344.72834498  .00000046  00000+0  83670-4 0  9997
2 55144  87.9107  85.8477 0001452 105.2556 254.8737 13.18688367 96628
